start=new Date('2021-12-08T00:00:00.000Z').valueOf();
sats=[{"LAUNCH_DATE":"2021-03-14","FILE":"3234816","CENTER_NAME":"EARTH","APOAPSIS":"339.932","TLE_LINE2":"2 47906  53.0511 332.4841 0000417 311.1247  48.9737 15.76752019 43197","MEAN_MOTION_DDOT":"0.0000000000000","EPHEMERIS_TYPE":"0","RA_OF_ASC_NODE":"332.4841","REV_AT_EPOCH":"4319","TIME_SYSTEM":"UTC","EPOCH":"2021-12-07T09:51:17.365824","OBJECT_NAME":"STARLINK-2366","OBJECT_ID":"2021-021AY","MEAN_ANOMALY":"48.9737","MEAN_ELEMENT_THEORY":"SGP4","REF_FRAME":"TEME","COUNTRY_CODE":"US","SITE":"AFETR","DECAY_DATE":null,"RCS_SIZE":"LARGE","BSTAR":"0.00008260200000","ARG_OF_PERICENTER":"311.1247","MEAN_MOTION":"15.76752019","INCLINATION":"53.0511","PERIOD":"91.327","CLASSIFICATION_TYPE":"U","MEAN_MOTION_DOT":"0.00012901","PERIAPSIS":"339.372","NORAD_CAT_ID":"47906","SEMIMAJOR_AXIS":"6717.787","TLE_LINE1":"1 47906U 21021AY  21341.41061766  .00012901  00000-0  82602-4 0  9999","ECCENTRICITY":"0.00004170","ELEMENT_SET_NO":"999","GP_ID":"191271615","OBJECT_TYPE":"PAYLOAD"},{"MEAN_ELEMENT_THEORY":"SGP4","REF_FRAME":"TEME","COUNTRY_CODE":"US","SITE":"AFETR","RCS_SIZE":"LARGE","DECAY_DATE":null,"RA_OF_ASC_NODE":"53.7912","REV_AT_EPOCH":"4148","TIME_SYSTEM":"UTC","EPOCH":"2021-12-07T13:59:56.098752","OBJECT_NAME":"STARLINK-2367","OBJECT_ID":"2021-021AZ","MEAN_ANOMALY":"328.0226","MEAN_MOTION_DDOT":"0.0000000000000","EPHEMERIS_TYPE":"0","LAUNCH_DATE":"2021-03-14","FILE":"3234877","CENTER_NAME":"EARTH","APOAPSIS":"548.473","TLE_LINE2":"2 47907  53.0569  53.7912 0001792  32.0872 328.0226 15.06393856 41481","OBJECT_TYPE":"PAYLOAD","NORAD_CAT_ID":"47907","SEMIMAJOR_AXIS":"6925.367","ECCENTRICITY":"0.00017920","TLE_LINE1":"1 47907U 21021AZ  21341.58328818  .00001245  00000-0  10249-3 0  9998","ELEMENT_SET_NO":"999","GP_ID":"191273623","PERIOD":"95.593","CLASSIFICATION_TYPE":"U","MEAN_MOTION_DOT":"0.00001245","PERIAPSIS":"545.991","BSTAR":"0.00010249000000","ARG_OF_PERICENTER":"32.0872","MEAN_MOTION":"15.06393856","INCLINATION":"53.0569"},{"MEAN_MOTION_DDOT":"0.0000000000000","EPHEMERIS_TYPE":"0","LAUNCH_DATE":"2021-03-14","FILE":"3234816","APOAPSIS":"548.036","TLE_LINE2":"2 47908  53.0568  53.7497 0001158  73.7020 286.4096 15.06393225 41956","CENTER_NAME":"EARTH","REF_FRAME":"TEME","MEAN_ELEMENT_THEORY":"SGP4","COUNTRY_CODE":"US","SITE":"AFETR","RCS_SIZE":"LARGE","DECAY_DATE":null,"REV_AT_EPOCH":"4195","TIME_SYSTEM":"UTC","RA_OF_ASC_NODE":"53.7497","EPOCH":"2021-12-07T14:10:33.277152","OBJECT_NAME":"STARLINK-2368","MEAN_ANOMALY":"286.4096","OBJECT_ID":"2021-021BA","MEAN_MOTION_DOT":"-0.00000113","CLASSIFICATION_TYPE":"U","PERIOD":"95.593","PERIAPSIS":"546.432","BSTAR":"0.00001132600000","ARG_OF_PERICENTER":"73.7020","MEAN_MOTION":"15.06393225","INCLINATION":"53.0568","OBJECT_TYPE":"PAYLOAD","NORAD_CAT_ID":"47908","ECCENTRICITY":"0.00011580","TLE_LINE1":"1 47908U 21021BA  21341.59066293 -.00000113  00000-0  11326-4 0  9998","SEMIMAJOR_AXIS":"6925.369","GP_ID":"191271114","ELEMENT_SET_NO":"999"},{"INCLINATION":"53.0577","MEAN_MOTION":"15.06396714","ARG_OF_PERICENTER":"73.1974","BSTAR":"-0.00002252600000","PERIAPSIS":"546.417","MEAN_MOTION_DOT":"-0.00000617","PERIOD":"95.592","CLASSIFICATION_TYPE":"U","GP_ID":"191299577","ELEMENT_SET_NO":"999","TLE_LINE1":"1 47909U 21021BB  21341.60632455 -.00000617  00000-0 -22526-4 0  9994","ECCENTRICITY":"0.00011650","SEMIMAJOR_AXIS":"6925.359","NORAD_CAT_ID":"47909","OBJECT_TYPE":"PAYLOAD","APOAPSIS":"548.030","TLE_LINE2":"2 47909  53.0577  43.6858 0001165  73.1974 286.9142 15.06396714 42264","CENTER_NAME":"EARTH","FILE":"3235143","LAUNCH_DATE":"2021-03-14","EPHEMERIS_TYPE":"0","MEAN_MOTION_DDOT":"0.0000000000000","MEAN_ANOMALY":"286.9142","OBJECT_ID":"2021-021BB","OBJECT_NAME":"STARLINK-2369","EPOCH":"2021-12-07T14:33:06.441120","REV_AT_EPOCH":"4226","TIME_SYSTEM":"UTC","RA_OF_ASC_NODE":"43.6858","RCS_SIZE":"MEDIUM","DECAY_DATE":null,"SITE":"AFETR","COUNTRY_CODE":"US","REF_FRAME":"TEME","MEAN_ELEMENT_THEORY":"SGP4"},{"PERIAPSIS":"546.225","CLASSIFICATION_TYPE":"U","PERIOD":"95.592","MEAN_MOTION_DOT":"0.00001433","MEAN_MOTION":"15.06401663","INCLINATION":"53.0562","BSTAR":"0.00011508000000","ARG_OF_PERICENTER":"61.1604","OBJECT_TYPE":"PAYLOAD","ELEMENT_SET_NO":"999","GP_ID":"191300331","NORAD_CAT_ID":"47910","SEMIMAJOR_AXIS":"6925.343","TLE_LINE1":"1 47910U 21021BC  21341.57588818  .00001433  00000-0  11508-3 0  9997","ECCENTRICITY":"0.00014200","MEAN_MOTION_DDOT":"0.0000000000000","EPHEMERIS_TYPE":"0","FILE":"3235143","CENTER_NAME":"EARTH","APOAPSIS":"548.192","TLE_LINE2":"2 47910  53.0562  43.8057 0001420  61.1604 298.9528 15.06401663 42119","LAUNCH_DATE":"2021-03-14","SITE":"AFETR","RCS_SIZE":"LARGE","DECAY_DATE":null,"MEAN_ELEMENT_THEORY":"SGP4","REF_FRAME":"TEME","COUNTRY_CODE":"US","OBJECT_NAME":"STARLINK-2370","OBJECT_ID":"2021-021BC","MEAN_ANOMALY":"298.9528","RA_OF_ASC_NODE":"43.8057","TIME_SYSTEM":"UTC","REV_AT_EPOCH":"4211","EPOCH":"2021-12-07T13:49:16.738752"},{"OBJECT_TYPE":"PAYLOAD","GP_ID":"191270364","ELEMENT_SET_NO":"999","TLE_LINE1":"1 47911U 21021BD  21341.50263755 -.00000032  00000-0  16770-4 0  9993","ECCENTRICITY":"0.00013210","SEMIMAJOR_AXIS":"6925.382","NORAD_CAT_ID":"47911","PERIAPSIS":"546.332","MEAN_MOTION_DOT":"-0.00000032","CLASSIFICATION_TYPE":"U","PERIOD":"95.593","INCLINATION":"53.0574","MEAN_MOTION":"15.06389105","ARG_OF_PERICENTER":"74.0093","BSTAR":"0.00001677000000","RCS_SIZE":"LARGE","DECAY_DATE":null,"SITE":"AFETR","COUNTRY_CODE":"US","REF_FRAME":"TEME","MEAN_ELEMENT_THEORY":"SGP4","MEAN_ANOMALY":"286.1041","OBJECT_ID":"2021-021BD","OBJECT_NAME":"STARLINK-2371","EPOCH":"2021-12-07T12:03:47.884320","TIME_SYSTEM":"UTC","REV_AT_EPOCH":"4172","RA_OF_ASC_NODE":"59.1546","EPHEMERIS_TYPE":"0","MEAN_MOTION_DDOT":"0.0000000000000","APOAPSIS":"548.162","TLE_LINE2":"2 47911  53.0574  59.1546 0001321  74.0093 286.1041 15.06389105 41722","CENTER_NAME":"EARTH","FILE":"3234816","LAUNCH_DATE":"2021-03-14"},{"NORAD_CAT_ID":"47912","SEMIMAJOR_AXIS":"6925.367","ECCENTRICITY":"0.00013270","TLE_LINE1":"1 47912U 21021BE  21341.56946900 -.00000431  00000-0 -10062-4 0  9992","ELEMENT_SET_NO":"999","GP_ID":"191270614","OBJECT_TYPE":"PAYLOAD","BSTAR":"-0.00001006200000","ARG_OF_PERICENTER":"66.4100","MEAN_MOTION":"15.06394057","INCLINATION":"53.0551","PERIOD":"95.593","CLASSIFICATION_TYPE":"U","MEAN_MOTION_DOT":"-0.00000431","PERIAPSIS":"546.313","RA_OF_ASC_NODE":"43.8385","TIME_SYSTEM":"UTC","REV_AT_EPOCH":"4194","EPOCH":"2021-12-07T13:40:02.121600","OBJECT_NAME":"STARLINK-2372","OBJECT_ID":"2021-021BE","MEAN_ANOMALY":"293.7029","MEAN_ELEMENT_THEORY":"SGP4","REF_FRAME":"TEME","COUNTRY_CODE":"US","SITE":"AFETR","DECAY_DATE":null,"RCS_SIZE":"LARGE","LAUNCH_DATE":"2021-03-14","FILE":"3234816","CENTER_NAME":"EARTH","TLE_LINE2":"2 47912  53.0551  43.8385 0001327  66.4100 293.7029 15.06394057 41945","APOAPSIS":"548.151","MEAN_MOTION_DDOT":"0.0000000000000","EPHEMERIS_TYPE":"0"},{"OBJECT_TYPE":"PAYLOAD","NORAD_CAT_ID":"47913","ECCENTRICITY":"0.00011090","TLE_LINE1":"1 47913U 21021BF  21341.59708764 -.00000187  00000-0  63061-5 0  9995","SEMIMAJOR_AXIS":"6925.358","GP_ID":"191271866","ELEMENT_SET_NO":"999","MEAN_MOTION_DOT":"-0.00000187","CLASSIFICATION_TYPE":"U","PERIOD":"95.592","PERIAPSIS":"546.455","BSTAR":"0.00000630610000","ARG_OF_PERICENTER":"74.9075","MEAN_MOTION":"15.06396759","INCLINATION":"53.0560","REF_FRAME":"TEME","MEAN_ELEMENT_THEORY":"SGP4","COUNTRY_CODE":"US","SITE":"AFETR","RCS_SIZE":"LARGE","DECAY_DATE":null,"REV_AT_EPOCH":"4197","TIME_SYSTEM":"UTC","RA_OF_ASC_NODE":"53.7302","EPOCH":"2021-12-07T14:19:48.372096","OBJECT_NAME":"STARLINK-2374","MEAN_ANOMALY":"285.2037","OBJECT_ID":"2021-021BF","MEAN_MOTION_DDOT":"0.0000000000000","EPHEMERIS_TYPE":"0","LAUNCH_DATE":"2021-03-14","FILE":"3234816","APOAPSIS":"547.992","TLE_LINE2":"2 47913  53.0560  53.7302 0001109  74.9075 285.2037 15.06396759 41977","CENTER_NAME":"EARTH"},{"GP_ID":"191273675","ELEMENT_SET_NO":"999","NORAD_CAT_ID":"47914","ECCENTRICITY":"0.00012650","TLE_LINE1":"1 47914U 21021BG  21341.59435067  .00000377  00000-0  44217-4 0  9990","SEMIMAJOR_AXIS":"6925.369","OBJECT_TYPE":"PAYLOAD","MEAN_MOTION":"15.06393479","INCLINATION":"53.0579","BSTAR":"0.00004421700000","ARG_OF_PERICENTER":"82.5003","PERIAPSIS":"546.357","MEAN_MOTION_DOT":"0.00000377","CLASSIFICATION_TYPE":"U","PERIOD":"95.593","OBJECT_NAME":"STARLINK-2375","MEAN_ANOMALY":"277.6130","OBJECT_ID":"2021-021BG","REV_AT_EPOCH":"4148","TIME_SYSTEM":"UTC","RA_OF_ASC_NODE":"53.7393","EPOCH":"2021-12-07T14:15:51.897888","SITE":"AFETR","DECAY_DATE":null,"RCS_SIZE":"LARGE","REF_FRAME":"TEME","MEAN_ELEMENT_THEORY":"SGP4","COUNTRY_CODE":"US","FILE":"3234881","APOAPSIS":"548.110","TLE_LINE2":"2 47914  53.0579  53.7393 0001265  82.5003 277.6130 15.06393479 41488","CENTER_NAME":"EARTH","LAUNCH_DATE":"2021-03-14","MEAN_MOTION_DDOT":"0.0000000000000","EPHEMERIS_TYPE":"0"},{"CLASSIFICATION_TYPE":"U","PERIOD":"95.593","MEAN_MOTION_DOT":"-0.00000373","PERIAPSIS":"546.233","BSTAR":"-0.00000613430000","ARG_OF_PERICENTER":"75.2058","MEAN_MOTION":"15.06392439","INCLINATION":"53.0617","OBJECT_TYPE":"PAYLOAD","NORAD_CAT_ID":"47915","SEMIMAJOR_AXIS":"6925.372","TLE_LINE1":"1 47915U 21021BH  21341.52661988 -.00000373  00000-0 -61343-5 0  9995","ECCENTRICITY":"0.00014490","ELEMENT_SET_NO":"999","GP_ID":"191270865","MEAN_MOTION_DDOT":"0.0000000000000","EPHEMERIS_TYPE":"0","LAUNCH_DATE":"2021-03-14","FILE":"3234816","CENTER_NAME":"EARTH","TLE_LINE2":"2 47915  53.0617  49.0116 0001449  75.2058 284.9091 15.06392439 42030","APOAPSIS":"548.240","MEAN_ELEMENT_THEORY":"SGP4","REF_FRAME":"TEME","COUNTRY_CODE":"US","SITE":"AFETR","RCS_SIZE":"LARGE","DECAY_DATE":null,"RA_OF_ASC_NODE":"49.0116","TIME_SYSTEM":"UTC","REV_AT_EPOCH":"4203","EPOCH":"2021-12-07T12:38:19.957632","OBJECT_NAME":"STARLINK-2376","OBJECT_ID":"2021-021BH","MEAN_ANOMALY":"284.9091"}];
